HAWK-10A                
1 60540U 24149CA  26068.79979252  .00002135  00000+0  19454-3 0  9993
2 60540  97.6943 146.4192 0004333  57.1994 302.9645 14.96174213 85123
STARLINK-33956          
1 63927U 25098B   26068.87242837 -.00035110  00000+0 -29688-2 0  9990
2 63927  70.0020 273.8381 0001317 251.6573 108.4443 14.98081570 46604
